CCSDS_OMM_VERS = 2.0
CREATION_DATE  = 
ORIGINATOR     = 

OBJECT_NAME    = STARLINK-36544
OBJECT_ID      = 2026-012AA
CENTER_NAME    = EARTH
REF_FRAME      = TEME
TIME_SYSTEM    = UTC
MEAN_ELEMENT_THEORY = SGP/SGP4

EPOCH          = 2026-02-17T12:00:01.999296
MEAN_MOTION    = 15.28372526
ECCENTRICITY   = .0001472
INCLINATION    = 42.9998
RA_OF_ASC_NODE = 68.3754
ARG_OF_PERICENTER = 277.6325
MEAN_ANOMALY   = 114.7316

EPHEMERIS_TYPE = 0
CLASSIFICATION_TYPE = U
NORAD_CAT_ID   = 67517
ELEMENT_SET_NO = 999
REV_AT_EPOCH   = 583
BSTAR          = .25598E-2
MEAN_MOTION_DOT = .72616E-3
MEAN_MOTION_DDOT = 0

CCSDS_OMM_VERS = 2.0
CREATION_DATE  = 
ORIGINATOR     = 

OBJECT_NAME    = STARLINK-36412
OBJECT_ID      = 2026-012AB
CENTER_NAME    = EARTH
REF_FRAME      = TEME
TIME_SYSTEM    = UTC
MEAN_ELEMENT_THEORY = SGP/SGP4

EPOCH          = 2026-02-17T12:00:01.999296
MEAN_MOTION    = 15.31096375
ECCENTRICITY   = .0000731
INCLINATION    = 42.9999
RA_OF_ASC_NODE = 68.1517
ARG_OF_PERICENTER = 278.8384
MEAN_ANOMALY   = 206.7010

EPHEMERIS_TYPE = 0
CLASSIFICATION_TYPE = U
NORAD_CAT_ID   = 67518
ELEMENT_SET_NO = 999
REV_AT_EPOCH   = 577
BSTAR          = -.78565E-1
MEAN_MOTION_DOT = -.2161174E-1
MEAN_MOTION_DDOT = 0

CCSDS_OMM_VERS = 2.0
CREATION_DATE  = 
ORIGINATOR     = 

OBJECT_NAME    = STARLINK-36415
OBJECT_ID      = 2026-012AC
CENTER_NAME    = EARTH
REF_FRAME      = TEME
TIME_SYSTEM    = UTC
MEAN_ELEMENT_THEORY = SGP/SGP4

EPOCH          = 2026-02-17T12:00:01.999296
MEAN_MOTION    = 15.31736385
ECCENTRICITY   = .0001428
INCLINATION    = 42.9996
RA_OF_ASC_NODE = 68.0863
ARG_OF_PERICENTER = 296.2208
MEAN_ANOMALY   = 215.6294

EPHEMERIS_TYPE = 0
CLASSIFICATION_TYPE = U
NORAD_CAT_ID   = 67519
ELEMENT_SET_NO = 999
REV_AT_EPOCH   = 598
BSTAR          = -.63974E-1
MEAN_MOTION_DOT = -.180006E-1
MEAN_MOTION_DDOT = 0

CCSDS_OMM_VERS = 2.0
CREATION_DATE  = 
ORIGINATOR     = 

OBJECT_NAME    = STARLINK-36547
OBJECT_ID      = 2026-012AD
CENTER_NAME    = EARTH
REF_FRAME      = TEME
TIME_SYSTEM    = UTC
MEAN_ELEMENT_THEORY = SGP/SGP4

EPOCH          = 2026-02-17T12:00:01.999296
MEAN_MOTION    = 15.31157682
ECCENTRICITY   = .0001516
INCLINATION    = 42.9996
RA_OF_ASC_NODE = 68.1944
ARG_OF_PERICENTER = 302.4974
MEAN_ANOMALY   = 165.5096

EPHEMERIS_TYPE = 0
CLASSIFICATION_TYPE = U
NORAD_CAT_ID   = 67520
ELEMENT_SET_NO = 999
REV_AT_EPOCH   = 577
BSTAR          = -.11766E+0
MEAN_MOTION_DOT = -.3215796E-1
MEAN_MOTION_DDOT = 0

CCSDS_OMM_VERS = 2.0
CREATION_DATE  = 
ORIGINATOR     = 

OBJECT_NAME    = STARLINK-36444
OBJECT_ID      = 2026-012AE
CENTER_NAME    = EARTH
REF_FRAME      = TEME
TIME_SYSTEM    = UTC
MEAN_ELEMENT_THEORY = SGP/SGP4

EPOCH          = 2026-02-17T12:00:01.999296
MEAN_MOTION    = 15.31850454
ECCENTRICITY   = .0001408
INCLINATION    = 43.0000
RA_OF_ASC_NODE = 68.2616
ARG_OF_PERICENTER = 286.0713
MEAN_ANOMALY   = 155.4309

EPHEMERIS_TYPE = 0
CLASSIFICATION_TYPE = U
NORAD_CAT_ID   = 67521
ELEMENT_SET_NO = 999
REV_AT_EPOCH   = 577
BSTAR          = -.63574E-1
MEAN_MOTION_DOT = -.1795732E-1
MEAN_MOTION_DDOT = 0

CCSDS_OMM_VERS = 2.0
CREATION_DATE  = 
ORIGINATOR     = 

OBJECT_NAME    = HULIANWANG DIGUI-146
OBJECT_ID      = 2026-013A
CENTER_NAME    = EARTH
REF_FRAME      = TEME
TIME_SYSTEM    = UTC
MEAN_ELEMENT_THEORY = SGP/SGP4

EPOCH          = 2026-02-16T12:09:30.693600
MEAN_MOTION    = 13.71823317
ECCENTRICITY   = .00012364
INCLINATION    = 50.0080
RA_OF_ASC_NODE = 73.2377
ARG_OF_PERICENTER = 334.4561
MEAN_ANOMALY   = 25.6268

EPHEMERIS_TYPE = 0
CLASSIFICATION_TYPE = U
NORAD_CAT_ID   = 67522
ELEMENT_SET_NO = 999
REV_AT_EPOCH   = 392
BSTAR          = .11837446E-3
MEAN_MOTION_DOT = -.32E-6
MEAN_MOTION_DDOT = 0

CCSDS_OMM_VERS = 2.0
CREATION_DATE  = 
ORIGINATOR     = 

OBJECT_NAME    = HULIANWANG DIGUI-147
OBJECT_ID      = 2026-013B
CENTER_NAME    = EARTH
REF_FRAME      = TEME
TIME_SYSTEM    = UTC
MEAN_ELEMENT_THEORY = SGP/SGP4

EPOCH          = 2026-02-17T00:20:14.020224
MEAN_MOTION    = 13.72092333
ECCENTRICITY   = .00017456
INCLINATION    = 50.0051
RA_OF_ASC_NODE = 71.2411
ARG_OF_PERICENTER = 38.6205
MEAN_ANOMALY   = 321.4810

EPHEMERIS_TYPE = 0
CLASSIFICATION_TYPE = U
NORAD_CAT_ID   = 67523
ELEMENT_SET_NO = 999
REV_AT_EPOCH   = 399
BSTAR          = .10789274E-3
MEAN_MOTION_DOT = -.41E-6
MEAN_MOTION_DDOT = 0

CCSDS_OMM_VERS = 2.0
CREATION_DATE  = 
ORIGINATOR     = 

OBJECT_NAME    = HULIANWANG DIGUI-148
OBJECT_ID      = 2026-013C
CENTER_NAME    = EARTH
REF_FRAME      = TEME
TIME_SYSTEM    = UTC
MEAN_ELEMENT_THEORY = SGP/SGP4

EPOCH          = 2026-02-16T13:43:12.151488
MEAN_MOTION    = 13.72180444
ECCENTRICITY   = .00002326
INCLINATION    = 50.0090
RA_OF_ASC_NODE = 72.9185
ARG_OF_PERICENTER = 355.4694
MEAN_ANOMALY   = 4.6195

EPHEMERIS_TYPE = 0
CLASSIFICATION_TYPE = U
NORAD_CAT_ID   = 67524
ELEMENT_SET_NO = 999
REV_AT_EPOCH   = 393
BSTAR          = .12834644E-3
MEAN_MOTION_DOT = -.22E-6
MEAN_MOTION_DDOT = 0

CCSDS_OMM_VERS = 2.0
CREATION_DATE  = 
ORIGINATOR     = 

OBJECT_NAME    = HULIANWANG DIGUI-149
OBJECT_ID      = 2026-013D
CENTER_NAME    = EARTH
REF_FRAME      = TEME
TIME_SYSTEM    = UTC
MEAN_ELEMENT_THEORY = SGP/SGP4

EPOCH          = 2026-02-16T13:36:25.379424
MEAN_MOTION    = 13.72336276
ECCENTRICITY   = .00008523
INCLINATION    = 50.0085
RA_OF_ASC_NODE = 72.8908
ARG_OF_PERICENTER = 98.4045
MEAN_ANOMALY   = 261.6943

EPHEMERIS_TYPE = 0
CLASSIFICATION_TYPE = U
NORAD_CAT_ID   = 67525
ELEMENT_SET_NO = 999
REV_AT_EPOCH   = 393
BSTAR          = .11758872E-3
MEAN_MOTION_DOT = -.32E-6
MEAN_MOTION_DDOT = 0

CCSDS_OMM_VERS = 2.0
CREATION_DATE  = 
ORIGINATOR     = 

OBJECT_NAME    = HULIANWANG DIGUI-150
OBJECT_ID      = 2026-013E
CENTER_NAME    = EARTH
REF_FRAME      = TEME
TIME_SYSTEM    = UTC
MEAN_ELEMENT_THEORY = SGP/SGP4

EPOCH          = 2026-02-16T13:24:54.181152
MEAN_MOTION    = 13.72667463
ECCENTRICITY   = .00004988
INCLINATION    = 50.0046
RA_OF_ASC_NODE = 72.8315
ARG_OF_PERICENTER = 64.4392
MEAN_ANOMALY   = 295.6550

EPHEMERIS_TYPE = 0
CLASSIFICATION_TYPE = U
NORAD_CAT_ID   = 67526
ELEMENT_SET_NO = 999
REV_AT_EPOCH   = 395
BSTAR          = .12624857E-3
MEAN_MOTION_DOT = -.23E-6
MEAN_MOTION_DDOT = 0

CCSDS_OMM_VERS = 2.0
CREATION_DATE  = 
ORIGINATOR     = 

OBJECT_NAME    = HULIANWANG DIGUI-151
OBJECT_ID      = 2026-013F
CENTER_NAME    = EARTH
REF_FRAME      = TEME
TIME_SYSTEM    = UTC
MEAN_ELEMENT_THEORY = SGP/SGP4

EPOCH          = 2026-02-16T14:56:49.741152
MEAN_MOTION    = 13.73319862
ECCENTRICITY   = .00004987
INCLINATION    = 50.0091
RA_OF_ASC_NODE = 72.5243
ARG_OF_PERICENTER = 137.3593
MEAN_ANOMALY   = 222.7337

EPHEMERIS_TYPE = 0
CLASSIFICATION_TYPE = U
NORAD_CAT_ID   = 67527
ELEMENT_SET_NO = 999
REV_AT_EPOCH   = 394
BSTAR          = .14353995E-3
MEAN_MOTION_DOT = -.6E-7
MEAN_MOTION_DDOT = 0

CCSDS_OMM_VERS = 2.0
CREATION_DATE  = 
ORIGINATOR     = 

OBJECT_NAME    = HULIANWANG DIGUI-152
OBJECT_ID      = 2026-013G
CENTER_NAME    = EARTH
REF_FRAME      = TEME
TIME_SYSTEM    = UTC
MEAN_ELEMENT_THEORY = SGP/SGP4

EPOCH          = 2026-02-16T13:21:31.414176
MEAN_MOTION    = 13.72913823
ECCENTRICITY   = .00019589
INCLINATION    = 50.0039
RA_OF_ASC_NODE = 72.8164
ARG_OF_PERICENTER = 115.1030
MEAN_ANOMALY   = 245.0064

EPHEMERIS_TYPE = 0
CLASSIFICATION_TYPE = U
NORAD_CAT_ID   = 67528
ELEMENT_SET_NO = 999
REV_AT_EPOCH   = 393
BSTAR          = .13844136E-3
MEAN_MOTION_DOT = -.11E-6
MEAN_MOTION_DDOT = 0

